CCSDS_OMM_VERS = 2.0
CREATION_DATE  = 
ORIGINATOR     = 

OBJECT_NAME    = COSMOS 2151
OBJECT_ID      = 1991-042A
CENTER_NAME    = EARTH
REF_FRAME      = TEME
TIME_SYSTEM    = UTC
MEAN_ELEMENT_THEORY = SGP/SGP4

EPOCH          = 2025-11-29T19:29:35.839104
MEAN_MOTION    = 14.99612706
ECCENTRICITY   = .0013638
INCLINATION    = 82.4966
RA_OF_ASC_NODE = 179.9601
ARG_OF_PERICENTER = 41.4808
MEAN_ANOMALY   = 318.7448

EPHEMERIS_TYPE = 0
CLASSIFICATION_TYPE = U
NORAD_CAT_ID   = 21422
ELEMENT_SET_NO = 999
REV_AT_EPOCH   = 84822
BSTAR          = .13662E-3
MEAN_MOTION_DOT = .1711E-4
MEAN_MOTION_DDOT = 0

CCSDS_OMM_VERS = 2.0
CREATION_DATE  = 
ORIGINATOR     = 

OBJECT_NAME    = SL-14 R/B
OBJECT_ID      = 1991-042B
CENTER_NAME    = EARTH
REF_FRAME      = TEME
TIME_SYSTEM    = UTC
MEAN_ELEMENT_THEORY = SGP/SGP4

EPOCH          = 2025-11-29T16:20:46.925088
MEAN_MOTION    = 14.81719385
ECCENTRICITY   = .0016301
INCLINATION    = 82.4917
RA_OF_ASC_NODE = 313.9700
ARG_OF_PERICENTER = 204.9850
MEAN_ANOMALY   = 155.0577

EPHEMERIS_TYPE = 0
CLASSIFICATION_TYPE = U
NORAD_CAT_ID   = 21423
ELEMENT_SET_NO = 999
REV_AT_EPOCH   = 83826
BSTAR          = .58678E-4
MEAN_MOTION_DOT = .486E-5
MEAN_MOTION_DDOT = 0

CCSDS_OMM_VERS = 2.0
CREATION_DATE  = 
ORIGINATOR     = 

OBJECT_NAME    = ERS-1
OBJECT_ID      = 1991-050A
CENTER_NAME    = EARTH
REF_FRAME      = TEME
TIME_SYSTEM    = UTC
MEAN_ELEMENT_THEORY = SGP/SGP4

EPOCH          = 2025-11-29T17:42:03.563136
MEAN_MOTION    = 14.39348603
ECCENTRICITY   = .0032737
INCLINATION    = 98.7913
RA_OF_ASC_NODE = 344.4670
ARG_OF_PERICENTER = 137.5222
MEAN_ANOMALY   = 222.8507

EPHEMERIS_TYPE = 0
CLASSIFICATION_TYPE = U
NORAD_CAT_ID   = 21574
ELEMENT_SET_NO = 999
REV_AT_EPOCH   = 80135
BSTAR          = .12021E-3
MEAN_MOTION_DOT = .33E-5
MEAN_MOTION_DDOT = 0

CCSDS_OMM_VERS = 2.0
CREATION_DATE  = 
ORIGINATOR     = 

OBJECT_NAME    = ARIANE 40 R/B
OBJECT_ID      = 1991-050F
CENTER_NAME    = EARTH
REF_FRAME      = TEME
TIME_SYSTEM    = UTC
MEAN_ELEMENT_THEORY = SGP/SGP4

EPOCH          = 2025-11-29T17:58:08.247648
MEAN_MOTION    = 14.42795741
ECCENTRICITY   = .0003574
INCLINATION    = 98.2184
RA_OF_ASC_NODE = 24.6471
ARG_OF_PERICENTER = 36.7423
MEAN_ANOMALY   = 323.4012

EPHEMERIS_TYPE = 0
CLASSIFICATION_TYPE = U
NORAD_CAT_ID   = 21610
ELEMENT_SET_NO = 999
REV_AT_EPOCH   = 80458
BSTAR          = .11931E-3
MEAN_MOTION_DOT = .356E-5
MEAN_MOTION_DDOT = 0

CCSDS_OMM_VERS = 2.0
CREATION_DATE  = 
ORIGINATOR     = 

OBJECT_NAME    = INTERCOSMOS 25
OBJECT_ID      = 1991-086A
CENTER_NAME    = EARTH
REF_FRAME      = TEME
TIME_SYSTEM    = UTC
MEAN_ELEMENT_THEORY = SGP/SGP4

EPOCH          = 2025-11-29T14:10:37.046784
MEAN_MOTION    = 12.11653844
ECCENTRICITY   = .1487313
INCLINATION    = 82.6068
RA_OF_ASC_NODE = 10.5276
ARG_OF_PERICENTER = 332.7569
MEAN_ANOMALY   = 20.2459

EPHEMERIS_TYPE = 0
CLASSIFICATION_TYPE = U
NORAD_CAT_ID   = 21819
ELEMENT_SET_NO = 999
REV_AT_EPOCH   = 48456
BSTAR          = .37315E-3
MEAN_MOTION_DOT = .1888E-4
MEAN_MOTION_DDOT = 0

CCSDS_OMM_VERS = 2.0
CREATION_DATE  = 
ORIGINATOR     = 

OBJECT_NAME    = SL-8 R/B
OBJECT_ID      = 1992-008B
CENTER_NAME    = EARTH
REF_FRAME      = TEME
TIME_SYSTEM    = UTC
MEAN_ELEMENT_THEORY = SGP/SGP4

EPOCH          = 2025-11-29T18:12:05.373792
MEAN_MOTION    = 13.75954599
ECCENTRICITY   = .0035845
INCLINATION    = 82.9265
RA_OF_ASC_NODE = 342.1034
ARG_OF_PERICENTER = 55.2514
MEAN_ANOMALY   = 118.8000

EPHEMERIS_TYPE = 0
CLASSIFICATION_TYPE = U
NORAD_CAT_ID   = 21876
ELEMENT_SET_NO = 999
REV_AT_EPOCH   = 69567
BSTAR          = .13893E-3
MEAN_MOTION_DOT = .151E-5
MEAN_MOTION_DDOT = 0

CCSDS_OMM_VERS = 2.0
CREATION_DATE  = 
ORIGINATOR     = 

OBJECT_NAME    = SL-8 R/B
OBJECT_ID      = 1992-020B
CENTER_NAME    = EARTH
REF_FRAME      = TEME
TIME_SYSTEM    = UTC
MEAN_ELEMENT_THEORY = SGP/SGP4

EPOCH          = 2025-11-29T19:43:36.909408
MEAN_MOTION    = 13.75524356
ECCENTRICITY   = .0028109
INCLINATION    = 82.9315
RA_OF_ASC_NODE = 227.9088
ARG_OF_PERICENTER = 214.7825
MEAN_ANOMALY   = 213.8330

EPHEMERIS_TYPE = 0
CLASSIFICATION_TYPE = U
NORAD_CAT_ID   = 21938
ELEMENT_SET_NO = 999
REV_AT_EPOCH   = 68740
BSTAR          = .46772E-4
MEAN_MOTION_DOT = .6E-6
MEAN_MOTION_DDOT = 0

CCSDS_OMM_VERS = 2.0
CREATION_DATE  = 
ORIGINATOR     = 

OBJECT_NAME    = USA 81
OBJECT_ID      = 1992-023A
CENTER_NAME    = EARTH
REF_FRAME      = TEME
TIME_SYSTEM    = UTC
MEAN_ELEMENT_THEORY = SGP/SGP4

EPOCH          = 2025-11-29T16:34:44.515200
MEAN_MOTION    = 14.32319599
ECCENTRICITY   = .0002003
INCLINATION    = 85.0090
RA_OF_ASC_NODE = 189.1011
ARG_OF_PERICENTER = 64.1365
MEAN_ANOMALY   = 296.0034

EPHEMERIS_TYPE = 0
CLASSIFICATION_TYPE = U
NORAD_CAT_ID   = 21949
ELEMENT_SET_NO = 999
REV_AT_EPOCH   = 8047
BSTAR          = .64692E-4
MEAN_MOTION_DOT = .194E-5
MEAN_MOTION_DDOT = 0

CCSDS_OMM_VERS = 2.0
CREATION_DATE  = 
ORIGINATOR     = 

OBJECT_NAME    = COSMOS 2219
OBJECT_ID      = 1992-076A
CENTER_NAME    = EARTH
REF_FRAME      = TEME
TIME_SYSTEM    = UTC
MEAN_ELEMENT_THEORY = SGP/SGP4

EPOCH          = 2025-11-29T03:25:26.257728
MEAN_MOTION    = 14.14065413
ECCENTRICITY   = .00186956
INCLINATION    = 71.0600
RA_OF_ASC_NODE = 228.2550
ARG_OF_PERICENTER = 345.7785
MEAN_ANOMALY   = 14.2808

EPHEMERIS_TYPE = 0
CLASSIFICATION_TYPE = U
NORAD_CAT_ID   = 22219
ELEMENT_SET_NO = 999
REV_AT_EPOCH   = 70416
BSTAR          = -.10638389E-3
MEAN_MOTION_DOT = -.25E-5
MEAN_MOTION_DDOT = 0

CCSDS_OMM_VERS = 2.0
CREATION_DATE  = 
ORIGINATOR     = 

OBJECT_NAME    = SL-16 R/B
OBJECT_ID      = 1992-076B
CENTER_NAME    = EARTH
REF_FRAME      = TEME
TIME_SYSTEM    = UTC
MEAN_ELEMENT_THEORY = SGP/SGP4

EPOCH          = 2025-11-29T15:59:45.658752
MEAN_MOTION    = 14.16839724
ECCENTRICITY   = .001508
INCLINATION    = 71.0017
RA_OF_ASC_NODE = 39.0703
ARG_OF_PERICENTER = 251.2453
MEAN_ANOMALY   = 223.0993

EPHEMERIS_TYPE = 0
CLASSIFICATION_TYPE = U
NORAD_CAT_ID   = 22220
ELEMENT_SET_NO = 999
REV_AT_EPOCH   = 70766
BSTAR          = .13232E-3
MEAN_MOTION_DOT = .218E-5
MEAN_MOTION_DDOT = 0

CCSDS_OMM_VERS = 2.0
CREATION_DATE  = 
ORIGINATOR     = 

OBJECT_NAME    = COSMOS 2221
OBJECT_ID      = 1992-080A
CENTER_NAME    = EARTH
REF_FRAME      = TEME
TIME_SYSTEM    = UTC
MEAN_ELEMENT_THEORY = SGP/SGP4

EPOCH          = 2025-11-29T15:19:44.860224
MEAN_MOTION    = 14.95682936
ECCENTRICITY   = .0015078
INCLINATION    = 82.5056
RA_OF_ASC_NODE = 14.8644
ARG_OF_PERICENTER = 163.0624
MEAN_ANOMALY   = 197.1104

EPHEMERIS_TYPE = 0
CLASSIFICATION_TYPE = U
NORAD_CAT_ID   = 22236
ELEMENT_SET_NO = 999
REV_AT_EPOCH   = 76583
BSTAR          = .15325E-3
MEAN_MOTION_DOT = .1734E-4
MEAN_MOTION_DDOT = 0

CCSDS_OMM_VERS = 2.0
CREATION_DATE  = 
ORIGINATOR     = 

OBJECT_NAME    = SL-16 R/B
OBJECT_ID      = 1992-093B
CENTER_NAME    = EARTH
REF_FRAME      = TEME
TIME_SYSTEM    = UTC
MEAN_ELEMENT_THEORY = SGP/SGP4

EPOCH          = 2025-11-29T19:28:12.639360
MEAN_MOTION    = 14.15426325
ECCENTRICITY   = .000195
INCLINATION    = 71.0205
RA_OF_ASC_NODE = 213.9343
ARG_OF_PERICENTER = 111.6093
MEAN_ANOMALY   = 248.5237

EPHEMERIS_TYPE = 0
CLASSIFICATION_TYPE = U
NORAD_CAT_ID   = 22285
ELEMENT_SET_NO = 999
REV_AT_EPOCH   = 69902
BSTAR          = -.99218E-4
MEAN_MOTION_DOT = -.241E-5
MEAN_MOTION_DDOT = 0

