COSMOS 2151             
1 21422U 91042A   25333.81222036  .00001711  00000+0  13662-3 0  9997
2 21422  82.4966 179.9601 0013638  41.4808 318.7448 14.99612706848221
SL-14 R/B               
1 21423U 91042B   25333.68109867  .00000486  00000+0  58678-4 0  9994
2 21423  82.4917 313.9700 0016301 204.9850 155.0577 14.81719385838261
ERS-1                   
1 21574U 91050A   25333.73754124  .00000330  00000+0  12021-3 0  9997
2 21574  98.7913 344.4670 0032737 137.5222 222.8507 14.39348603801354
ARIANE 40 R/B           
1 21610U 91050F   25333.74870657  .00000356  00000+0  11931-3 0  9996
2 21610  98.2184  24.6471 0003574  36.7423 323.4012 14.42795741804586
INTERCOSMOS 25          
1 21819U 91086A   25333.59070656  .00001888  00000+0  37315-3 0  9995
2 21819  82.6068  10.5276 1487313 332.7569  20.2459 12.11653844484560
SL-8 R/B                
1 21876U 92008B   25333.75839553  .00000151  00000+0  13893-3 0  9997
2 21876  82.9265 342.1034 0035845  55.2514 118.8000 13.75954599695670
SL-8 R/B                
1 21938U 92020B   25333.82195497  .00000060  00000+0  46772-4 0  9992
2 21938  82.9315 227.9088 0028109 214.7825 213.8330 13.75524356687404
USA 81                  
1 21949U 92023A   25333.69079300  .00000194  00000+0  64692-4 0  9995
2 21949  85.0090 189.1011 0002003  64.1365 296.0034 14.32319599 80479
COSMOS 2219             
1 22219U 92076A   25333.14266502 -.00000250  00000+0 -10638-3 0  9991
2 22219  71.0600 228.2550 0018695 345.7785  14.2808 14.14065413704164
SL-16 R/B               
1 22220U 92076B   25333.66650068  .00000218  00000+0  13232-3 0  9999
2 22220  71.0017  39.0703 0015080 251.2453 223.0993 14.16839724707663
COSMOS 2221             
1 22236U 92080A   25333.63871366  .00001734  00000+0  15325-3 0  9993
2 22236  82.5056  14.8644 0015078 163.0624 197.1104 14.95682936765838
SL-16 R/B               
1 22285U 92093B   25333.81125740 -.00000241  00000+0 -99218-4 0  9997
2 22285  71.0205 213.9343 0001950 111.6093 248.5237 14.15426325699027
